{
    "links": {
        "self": "http://www.neowsapp.com/rest/v1/neo/3837712?api_key=iIulBulltgU6a56xZRHN4H3l9WmuAYTsLGpBGhQ2"
    },
    "id": "3837712",
    "neo_reference_id": "3837712",
    "name": "(2019 AO6)",
    "designation": "2019 AO6",
    "nasa_jpl_url": "http://ssd.jpl.nasa.gov/sbdb.cgi?sstr=3837712",
    "absolute_magnitude_h": 21.1,
    "estimated_diameter": {
        "kilometers": {
            "estimated_diameter_min": 0.160160338,
            "estimated_diameter_max": 0.358129403
        },
        "meters": {
            "estimated_diameter_min": 160.1603379786,
            "estimated_diameter_max": 358.1294030194
        },
        "miles": {
            "estimated_diameter_min": 0.0995189894,
            "estimated_diameter_max": 0.2225312253
        },
        "feet": {
            "estimated_diameter_min": 525.4604432536,
            "estimated_diameter_max": 1174.9652706022
        }
    },
    "is_potentially_hazardous_asteroid": false,
    "close_approach_data": [
        {
            "close_approach_date": "2018-11-01",
            "close_approach_date_full": "2018-Nov-01 15:50",
            "epoch_date_close_approach": 1541087400000,
            "relative_velocity": {
                "kilometers_per_second": "11.6850019895",
                "kilometers_per_hour": "42066.0071623166",
                "miles_per_hour": "26138.180950385"
            },
            "miss_distance": {
                "astronomical": "0.3553723007",
                "lunar": "138.2398249723",
                "kilometers": "53162939.241719509",
                "miles": "33033918.6416428642"
            },
            "orbiting_body": "Earth"
        }
    ],
    "orbital_data": {
        "orbit_id": "4",
        "orbit_determination_date": "2019-02-07 07:04:53",
        "first_observation_date": "2019-01-05",
        "last_observation_date": "2019-02-03",
        "data_arc_in_days": 29,
        "observations_used": 24,
        "orbit_uncertainty": "6",
        "minimum_orbit_intersection": ".138333",
        "jupiter_tisserand_invariant": "3.206",
        "epoch_osculation": "2459000.5",
        "eccentricity": ".5643223168454834",
        "semi_major_axis": "2.4655190724833",
        "inclination": "15.42274806126851",
        "ascending_node_longitude": "84.74337162272582",
        "orbital_period": "1414.037661235207",
        "perihelion_distance": "1.074171637272797",
        "perihelion_argument": "322.7920199214343",
        "aphelion_distance": "3.856866507693804",
        "perihelion_time": "2458416.602383920529",
        "mean_anomaly": "148.6545567711331",
        "mean_motion": ".25459010737064",
        "equinox": "J2000",
        "orbit_class": {
            "orbit_class_type": "AMO",
            "orbit_class_description": "Near-Earth asteroid orbits similar to that of 1221 Amor",
            "orbit_class_range": "1.017 AU < q (perihelion) < 1.3 AU"
        }
    },
    "is_sentry_object": false
}